{"fetched_at":"2026-07-15T06:36:07.156Z","source":"https://celestrak.org/NORAD/elements/gp.php?NAME=HULIANWANG&FORMAT=JSON","constellation":"guowang","records":[{"OBJECT_NAME":"HULIANWANG DIGUI-12","OBJECT_ID":"2025-030B","EPOCH":"2026-07-14T21:50:03.867936","CLASSIFICATION_TYPE":"U","MEAN_MOTION":13.29322238,"ECCENTRICITY":0.00009637,"INCLINATION":50.0014,"RA_OF_ASC_NODE":136.5222,"ARG_OF_PERICENTER":271.3933,"MEAN_ANOMALY":88.6828,"EPHEMERIS_TYPE":0,"NORAD_CAT_ID":62972,"ELEMENT_SET_NO":999,"REV_AT_EPOCH":6954,"BSTAR":0.000013302891,"MEAN_MOTION_DOT":-0.00000118,"MEAN_MOTION_DDOT":0},{"OBJECT_NAME":"HULIANWANG DIGUI-13","OBJECT_ID":"2025-030C","EPOCH":"2026-07-14T21:25:52.629600","CLASSIFICATION_TYPE":"U","MEAN_MOTION":13.29324376,"ECCENTRICITY":0.0000781,"INCLINATION":50.0017,"RA_OF_ASC_NODE":136.4501,"ARG_OF_PERICENTER":271.8485,"MEAN_ANOMALY":88.2298,"EPHEMERIS_TYPE":0,"NORAD_CAT_ID":62973,"ELEMENT_SET_NO":999,"REV_AT_EPOCH":6954,"BSTAR":0.00002562637,"MEAN_MOTION_DOT":-0.00000112,"MEAN_MOTION_DDOT":0},{"OBJECT_NAME":"HULIANWANG DIGUI-14","OBJECT_ID":"2025-030D","EPOCH":"2026-07-14T22:38:08.484000","CLASSIFICATION_TYPE":"U","MEAN_MOTION":13.2932747,"ECCENTRICITY":0.00007854,"INCLINATION":50.0023,"RA_OF_ASC_NODE":136.0733,"ARG_OF_PERICENTER":275.7244,"MEAN_ANOMALY":84.3539,"EPHEMERIS_TYPE":0,"NORAD_CAT_ID":62974,"ELEMENT_SET_NO":999,"REV_AT_EPOCH":6955,"BSTAR":0.000017700938,"MEAN_MOTION_DOT":-0.00000116,"MEAN_MOTION_DDOT":0},{"OBJECT_NAME":"HULIANWANG DIGUI-15","OBJECT_ID":"2025-030E","EPOCH":"2026-07-14T23:02:08.632032","CLASSIFICATION_TYPE":"U","MEAN_MOTION":13.29324372,"ECCENTRICITY":0.00008705,"INCLINATION":50.0018,"RA_OF_ASC_NODE":136.1402,"ARG_OF_PERICENTER":275.8987,"MEAN_ANOMALY":84.1786,"EPHEMERIS_TYPE":0,"NORAD_CAT_ID":62975,"ELEMENT_SET_NO":999,"REV_AT_EPOCH":6955,"BSTAR":0.000010394193,"MEAN_MOTION_DOT":-0.00000119,"MEAN_MOTION_DDOT":0},{"OBJECT_NAME":"HULIANWANG DIGUI-16","OBJECT_ID":"2025-030F","EPOCH":"2026-07-14T22:26:13.398720","CLASSIFICATION_TYPE":"U","MEAN_MOTION":13.29325579,"ECCENTRICITY":0.00007535,"INCLINATION":50.004,"RA_OF_ASC_NODE":136.0999,"ARG_OF_PERICENTER":273.8208,"MEAN_ANOMALY":86.2578,"EPHEMERIS_TYPE":0,"NORAD_CAT_ID":62976,"ELEMENT_SET_NO":999,"REV_AT_EPOCH":6955,"BSTAR":0.000013228933,"MEAN_MOTION_DOT":-0.00000118,"MEAN_MOTION_DDOT":0},{"OBJECT_NAME":"HULIANWANG DIGUI-17","OBJECT_ID":"2025-030G","EPOCH":"2026-07-14T22:14:03.090624","CLASSIFICATION_TYPE":"U","MEAN_MOTION":13.29325678,"ECCENTRICITY":0.00008639,"INCLINATION":50.0052,"RA_OF_ASC_NODE":136.1076,"ARG_OF_PERICENTER":266.5304,"MEAN_ANOMALY":93.5469,"EPHEMERIS_TYPE":0,"NORAD_CAT_ID":62977,"ELEMENT_SET_NO":999,"REV_AT_EPOCH":6955,"BSTAR":0.00000915105,"MEAN_MOTION_DOT":-0.0000012,"MEAN_MOTION_DDOT":0},{"OBJECT_NAME":"HULIANWANG DIGUI-18","OBJECT_ID":"2025-030H","EPOCH":"2026-07-14T22:01:59.876832","CLASSIFICATION_TYPE":"U","MEAN_MOTION":13.29327586,"ECCENTRICITY":0.00008997,"INCLINATION":50.0057,"RA_OF_ASC_NODE":136.0786,"ARG_OF_PERICENTER":265.7546,"MEAN_ANOMALY":94.3223,"EPHEMERIS_TYPE":0,"NORAD_CAT_ID":62978,"ELEMENT_SET_NO":999,"REV_AT_EPOCH":6955,"BSTAR":-0.000002127575,"MEAN_MOTION_DOT":-0.00000125,"MEAN_MOTION_DDOT":0},{"OBJECT_NAME":"HULIANWANG DIGUI-19","OBJECT_ID":"2025-030J","EPOCH":"2026-07-14T21:02:02.053824","CLASSIFICATION_TYPE":"U","MEAN_MOTION":13.29319015,"ECCENTRICITY":0.00007915,"INCLINATION":50.0042,"RA_OF_ASC_NODE":136.4641,"ARG_OF_PERICENTER":264.4393,"MEAN_ANOMALY":95.6389,"EPHEMERIS_TYPE":0,"NORAD_CAT_ID":62979,"ELEMENT_SET_NO":999,"REV_AT_EPOCH":6954,"BSTAR":0.000019855184,"MEAN_MOTION_DOT":-0.00000115,"MEAN_MOTION_DDOT":0},{"OBJECT_NAME":"HULIANWANG DIGUI-20","OBJECT_ID":"2025-086A","EPOCH":"2026-07-14T21:38:59.330112","CLASSIFICATION_TYPE":"U","MEAN_MOTION":13.24411484,"ECCENTRICITY":0.00020239,"INCLINATION":86.5066,"RA_OF_ASC_NODE":303.7985,"ARG_OF_PERICENTER":112.8249,"MEAN_ANOMALY":247.3099,"EPHEMERIS_TYPE":0,"NORAD_CAT_ID":63687,"ELEMENT_SET_NO":999,"REV_AT_EPOCH":5854,"BSTAR":-0.00002655352,"MEAN_MOTION_DOT":3e-8,"MEAN_MOTION_DDOT":0},{"OBJECT_NAME":"HULIANWANG DIGUI-21","OBJECT_ID":"2025-086B","EPOCH":"2026-07-14T21:49:54.497856","CLASSIFICATION_TYPE":"U","MEAN_MOTION":13.24410133,"ECCENTRICITY":0.00019502,"INCLINATION":86.5094,"RA_OF_ASC_NODE":303.8612,"ARG_OF_PERICENTER":115.9605,"MEAN_ANOMALY":244.173,"EPHEMERIS_TYPE":0,"NORAD_CAT_ID":63688,"ELEMENT_SET_NO":999,"REV_AT_EPOCH":5853,"BSTAR":-0.000006352765,"MEAN_MOTION_DOT":1.2e-7,"MEAN_MOTION_DDOT":0},{"OBJECT_NAME":"HULIANWANG DIGUI-22","OBJECT_ID":"2025-086C","EPOCH":"2026-07-14T22:00:44.339904","CLASSIFICATION_TYPE":"U","MEAN_MOTION":13.24410483,"ECCENTRICITY":0.00020656,"INCLINATION":86.5059,"RA_OF_ASC_NODE":303.7173,"ARG_OF_PERICENTER":112.413,"MEAN_ANOMALY":247.7223,"EPHEMERIS_TYPE":0,"NORAD_CAT_ID":63689,"ELEMENT_SET_NO":999,"REV_AT_EPOCH":5853,"BSTAR":0.000020855759,"MEAN_MOTION_DOT":2.4e-7,"MEAN_MOTION_DDOT":0},{"OBJECT_NAME":"HULIANWANG DIGUI-23","OBJECT_ID":"2025-086D","EPOCH":"2026-07-14T22:22:27.723648","CLASSIFICATION_TYPE":"U","MEAN_MOTION":13.24410236,"ECCENTRICITY":0.00020437,"INCLINATION":86.5101,"RA_OF_ASC_NODE":303.9018,"ARG_OF_PERICENTER":112.7161,"MEAN_ANOMALY":247.419,"EPHEMERIS_TYPE":0,"NORAD_CAT_ID":63690,"ELEMENT_SET_NO":999,"REV_AT_EPOCH":5853,"BSTAR":0.000069804244,"MEAN_MOTION_DOT":4.5e-7,"MEAN_MOTION_DDOT":0},{"OBJECT_NAME":"HULIANWANG DIGUI-24","OBJECT_ID":"2025-086E","EPOCH":"2026-07-14T22:33:23.603328","CLASSIFICATION_TYPE":"U","MEAN_MOTION":13.24410923,"ECCENTRICITY":0.00020055,"INCLINATION":86.5108,"RA_OF_ASC_NODE":303.9345,"ARG_OF_PERICENTER":114.9883,"MEAN_ANOMALY":245.146,"EPHEMERIS_TYPE":0,"NORAD_CAT_ID":63691,"ELEMENT_SET_NO":999,"REV_AT_EPOCH":5853,"BSTAR":0.000078132135,"MEAN_MOTION_DOT":4.8e-7,"MEAN_MOTION_DDOT":0},{"OBJECT_NAME":"HULIANWANG DIGUI-25","OBJECT_ID":"2025-086F","EPOCH":"2026-07-14T22:44:16.311264","CLASSIFICATION_TYPE":"U","MEAN_MOTION":13.24410271,"ECCENTRICITY":0.0001958,"INCLINATION":86.5047,"RA_OF_ASC_NODE":303.676,"ARG_OF_PERICENTER":112.4271,"MEAN_ANOMALY":247.7071,"EPHEMERIS_TYPE":0,"NORAD_CAT_ID":63692,"ELEMENT_SET_NO":999,"REV_AT_EPOCH":5853,"BSTAR":0.000068593421,"MEAN_MOTION_DOT":4.4e-7,"MEAN_MOTION_DDOT":0},{"OBJECT_NAME":"HULIANWANG DIGUI-26","OBJECT_ID":"2025-086G","EPOCH":"2026-07-14T22:11:35.186784","CLASSIFICATION_TYPE":"U","MEAN_MOTION":13.24409246,"ECCENTRICITY":0.00021586,"INCLINATION":86.5095,"RA_OF_ASC_NODE":303.8719,"ARG_OF_PERICENTER":118.8162,"MEAN_ANOMALY":241.3189,"EPHEMERIS_TYPE":0,"NORAD_CAT_ID":63693,"ELEMENT_SET_NO":999,"REV_AT_EPOCH":5853,"BSTAR":0.000033355205,"MEAN_MOTION_DOT":2.9e-7,"MEAN_MOTION_DDOT":0},{"OBJECT_NAME":"HULIANWANG DIGUI-27","OBJECT_ID":"2025-086H","EPOCH":"2026-07-14T22:55:06.800448","CLASSIFICATION_TYPE":"U","MEAN_MOTION":13.24412113,"ECCENTRICITY":0.00020171,"INCLINATION":86.5057,"RA_OF_ASC_NODE":303.72,"ARG_OF_PERICENTER":114.4619,"MEAN_ANOMALY":245.6725,"EPHEMERIS_TYPE":0,"NORAD_CAT_ID":63694,"ELEMENT_SET_NO":999,"REV_AT_EPOCH":5853,"BSTAR":0.00004386533,"MEAN_MOTION_DOT":3.3e-7,"MEAN_MOTION_DDOT":0}]}
