HULIANWANG DIGUI-12     
1 62972U 25030B   26195.90976699 -.00000118  00000+0  13303-4 0  9998
2 62972  50.0014 136.5222 0000963 271.3933  88.6828 13.29322238 69544
HULIANWANG DIGUI-13     
1 62973U 25030C   26195.89297025 -.00000112  00000+0  25626-4 0  9991
2 62973  50.0017 136.4501 0000781 271.8485  88.2298 13.29324376 69544
HULIANWANG DIGUI-14     
1 62974U 25030D   26195.94315375 -.00000116  00000+0  17701-4 0  9996
2 62974  50.0023 136.0733 0000785 275.7244  84.3539 13.29327470 69559
HULIANWANG DIGUI-15     
1 62975U 25030E   26195.95982213 -.00000119  00000+0  10394-4 0  9993
2 62975  50.0018 136.1402 0000870 275.8987  84.1786 13.29324372 69558
HULIANWANG DIGUI-16     
1 62976U 25030F   26195.93487730 -.00000118  00000+0  13229-4 0  9995
2 62976  50.0040 136.0999 0000753 273.8208  86.2578 13.29325579 69550
HULIANWANG DIGUI-17     
1 62977U 25030G   26195.92642466 -.00000120  00000+0  91510-5 0  9997
2 62977  50.0052 136.1076 0000863 266.5304  93.5469 13.29325678 69559
HULIANWANG DIGUI-18     
1 62978U 25030H   26195.91805413 -.00000125  00000+0 -21276-5 0  9998
2 62978  50.0057 136.0786 0000899 265.7546  94.3223 13.29327586 69557
HULIANWANG DIGUI-19     
1 62979U 25030J   26195.87641266 -.00000115  00000+0  19855-4 0  9995
2 62979  50.0042 136.4641 0000791 264.4393  95.6389 13.29319015 69547
HULIANWANG DIGUI-20     
1 63687U 25086A   26195.90207558  .00000003  00000+0 -26554-4 0  9999
2 63687  86.5066 303.7985 0002023 112.8249 247.3099 13.24411484 58540
HULIANWANG DIGUI-21     
1 63688U 25086B   26195.90965854  .00000012  00000+0 -63528-5 0  9993
2 63688  86.5094 303.8612 0001950 115.9605 244.1730 13.24410133 58534
HULIANWANG DIGUI-22     
1 63689U 25086C   26195.91717986  .00000024  00000+0  20856-4 0  9994
2 63689  86.5059 303.7173 0002065 112.4130 247.7223 13.24410483 58534
HULIANWANG DIGUI-23     
1 63690U 25086D   26195.93226532  .00000045  00000+0  69804-4 0  9999
2 63690  86.5101 303.9018 0002043 112.7161 247.4190 13.24410236 58533
HULIANWANG DIGUI-24     
1 63691U 25086E   26195.93985652  .00000048  00000+0  78132-4 0  9992
2 63691  86.5108 303.9345 0002005 114.9883 245.1460 13.24410923 58535
HULIANWANG DIGUI-25     
1 63692U 25086F   26195.94741101  .00000044  00000+0  68593-4 0  9999
2 63692  86.5047 303.6760 0001958 112.4271 247.7071 13.24410271 58538
HULIANWANG DIGUI-26     
1 63693U 25086G   26195.92471281  .00000029  00000+0  33355-4 0  9998
2 63693  86.5095 303.8719 0002158 118.8162 241.3189 13.24409246 58530
HULIANWANG DIGUI-27     
1 63694U 25086H   26195.95493982  .00000033  00000+0  43865-4 0  9996
2 63694  86.5057 303.7200 0002017 114.4619 245.6725 13.24412113 58536
